STARS (KUKAI)           
1 33498U 09002G   26068.71826512  .00006351  00000+0  58664-3 0  9998
2 33498  98.1461  12.0831 0009772 130.4363 229.7710 14.94938540923614
STARLINK-5823           
1 55786U 23028AX  26068.75256177 -.00000080  00000+0  11127-5 0  9993
2 55786  70.0009 204.3750 0002457 270.7505  89.3373 14.98328941167033
